[{"OBJECT_NAME":"STARLINK-30928","OBJECT_ID":"2023-183R","EPOCH":"2026-03-09T22:00:01.999584","MEAN_MOTION":15.26728475,"ECCENTRICITY":0.00015168,"INCLINATION":43.0014,"RA_OF_ASC_NODE":40.0806,"ARG_OF_PERICENTER":255.5144,"MEAN_ANOMALY":45.4622,"EPHEMERIS_TYPE":0,"CLASSIFICATION_TYPE":"U","NORAD_CAT_ID":58452,"ELEMENT_SET_NO":999,"REV_AT_EPOCH":552,"BSTAR":0.0018034848,"MEAN_MOTION_DOT":0.00048418,"MEAN_MOTION_DDOT":0},{"OBJECT_NAME":"XCUBE-1","OBJECT_ID":"2024-247Z","EPOCH":"2026-03-09T11:35:28.885344","MEAN_MOTION":15.27910558,"ECCENTRICITY":0.00052355,"INCLINATION":44.9938,"RA_OF_ASC_NODE":117.7807,"ARG_OF_PERICENTER":331.1499,"MEAN_ANOMALY":28.9094,"EPHEMERIS_TYPE":0,"CLASSIFICATION_TYPE":"U","NORAD_CAT_ID":62400,"ELEMENT_SET_NO":999,"REV_AT_EPOCH":6770,"BSTAR":0.00036224252,"MEAN_MOTION_DOT":9.773e-5,"MEAN_MOTION_DDOT":0}]
